0 BREEZE-M R/B
1 28527U 05003B   13279.81130727  .00000052  00000-0  00000+0 0  3005
2 28527 018.6946 159.8367 5370916 326.9788 290.8827 01.93168623 61195
0 BREEZE-M R/B
1 28527U 05003B   13281.90012653 -.00000092  00000-0  00000+0 0  3011
2 28527 018.6986 159.5783 5370310 327.4427 303.4578 01.93169936 61239
0 BREEZE-M R/B
1 28527U 05003B   13286.63242780 -.00000113  00000-0  00000+0 0  3027
2 28527 018.7071 158.9969 5368956 328.4888 354.3358 01.93170449 61332
0 BREEZE-M R/B
1 28527U 05003B   13289.07470789  .00000041  00000-0  00000+0 0  3030
2 28527 018.7108 158.6989 5368300 329.0251 252.7113 01.93169321 61377
0 BREEZE-M R/B
1 28527U 05003B   13290.27621921  .00000056  00000-0  10000-3 0  3053
2 28527 018.7090 158.5128 5367282 329.3296 008.2546 01.93167130 61405
0 BREEZE-M R/B
1 28527U 05003B   13293.35610306  .00000016  00000-0  00000+0 0  3040
2 28527 018.7171 158.1772 5367483 329.9635 350.0175 01.93169497 61462
